NORAD_CAT_ID,OBJECT_NAME,OBJECT_TYPE,EPOCH,MEAN_MOTION,ECCENTRICITY,INCLINATION,RA_OF_ASC_NODE,ARG_OF_PERICENTER,MEAN_ANOMALY,BSTAR,MEAN_MOTION_DOT,MEAN_MOTION_DDOT,TLE_LINE0,TLE_LINE1,TLE_LINE2,SEMIMAJOR_AXIS,PERIOD,APOGEE,PERIGEE,DECAYED
55631.0,STARLINK-5558,PAYLOAD,2024-04-25 05:20:02,14.9833381,0.0003079,69.9993,127.6331,261.5954,98.4856,-3.4023e-05,-4.99e-06,0.0,0 STARLINK-5558,1 55631U 23021D   24116.22225300 -.00000499  00000-0 -34023-4 0  9998,2 55631  69.9993 127.6331 0003079 261.5954  98.4856 14.98333810 65620,6950.181,96.107,574.186,569.906,0.0
55631.0,STARLINK-5558,PAYLOAD,2024-04-25 10:08:26,14.9833195,0.0003096,69.9993,127.1281,261.6873,98.3935,-5.4069e-05,-7.38e-06,0.0,0 STARLINK-5558,1 55631U 23021D   24116.42253418 -.00000738  00000-0 -54069-4 0  9999,2 55631  69.9993 127.1281 0003096 261.6873  98.3935 14.98331950 65955,6950.187,96.107,574.204,569.9,0.0
55631.0,STARLINK-5558,PAYLOAD,2024-04-26 05:22:03,14.98334335,0.0003124,69.9991,125.1084,257.7518,102.3291,-5.4243e-05,-7.4e-06,0.0,0 STARLINK-5558,1 55631U 23021D   24117.22364974 -.00000740  00000-0 -54243-4 0  9995,2 55631  69.9991 125.1084 0003124 257.7518 102.3291 14.98334335 65777,6950.179,96.107,574.216,569.873,0.0
55631.0,STARLINK-5558,PAYLOAD,2024-04-26 10:10:27,14.98334577,0.0003196,69.9989,124.6023,268.4709,91.6084,-5.7588e-05,-7.8e-06,0.0,0 STARLINK-5558,1 55631U 23021D   24117.42392978 -.00000780  00000-0 -57588-4 0  9991,2 55631  69.9989 124.6023 0003196 268.4709  91.6084 14.98334577 66107,6950.179,96.107,574.265,569.822,0.0
55631.0,STARLINK-5558,PAYLOAD,2024-04-27 10:12:28,14.98334449,0.0003324,69.9984,122.0768,269.5439,90.5339,5.6478e-05,5.81e-06,0.0,0 STARLINK-5558,1 55631U 23021D   24118.42532432  .00000581  00000-0  56478-4 0  9997,2 55631  69.9984 122.0768 0003324 269.5439  90.5339 14.98334449 65956,6950.179,96.107,574.354,569.734,0.0
55631.0,STARLINK-5558,PAYLOAD,2024-04-28 03:49:57,14.98327312,0.0003267,69.9983,120.2251,269.3564,90.722,-3.7263e-05,-5.38e-06,0.0,0 STARLINK-5558,1 55631U 23021D   24119.15969122 -.00000538  00000-0 -37263-4 0  9993,2 55631  69.9983 120.2251 0003267 269.3564  90.7220 14.98327312 66060,6950.201,96.107,574.337,569.796,0.0
55631.0,STARLINK-5558,PAYLOAD,2024-04-28 10:14:29,14.98328796,0.0003259,69.9983,119.5518,269.4174,90.6612,-1.8937e-05,-3.19e-06,0.0,0 STARLINK-5558,1 55631U 23021D   24119.42672991 -.00000319  00000-0 -18937-4 0  9992,2 55631  69.9983 119.5518 0003259 269.4174  90.6612 14.98328796 66405,6950.197,96.107,574.327,569.797,0.0
55631.0,STARLINK-5558,PAYLOAD,2024-04-28 23:03:33,14.98332609,0.0003212,69.9983,118.2051,269.9118,90.1673,-1.1094e-05,-2.25e-06,0.0,0 STARLINK-5558,1 55631U 23021D   24119.96080722 -.00000225  00000-0 -11094-4 0  9999,2 55631  69.9983 118.2051 0003212 269.9118  90.1673 14.98332609 66483,6950.185,96.107,574.282,569.817,0.0
55631.0,STARLINK-5558,PAYLOAD,2024-04-29 03:51:57,14.98333615,0.0003216,69.9983,117.7001,269.8372,90.2418,5.6067e-07,-8.6e-07,0.0,0 STARLINK-5558,1 55631U 23021D   24120.16108573 -.00000086  00000-0  56067-6 0  9993,2 55631  69.9983 117.7001 0003216 269.8372  90.2418 14.98333615 66214,6950.182,96.107,574.282,569.812,0.0
55631.0,STARLINK-5558,PAYLOAD,2024-04-29 10:16:29,14.98333942,0.0003209,69.9983,117.027,269.276,90.8031,1.6618e-06,-7.3e-07,0.0,0 STARLINK-5558,1 55631U 23021D   24120.42812491 -.00000073  00000-0  16618-5 0  9996,2 55631  69.9983 117.0270 0003209 269.2760  90.8031 14.98333942 66559,6950.181,96.107,574.276,569.815,0.0
55631.0,STARLINK-5558,PAYLOAD,2024-04-29 23:05:34,14.98329509,0.0003228,69.9982,115.6803,269.1876,90.8913,3.1676e-05,2.85e-06,0.0,0 STARLINK-5558,1 55631U 23021D   24120.96220618  .00000285  00000-0  31676-4 0  9993,2 55631  69.9982 115.6803 0003228 269.1876  90.8913 14.98329509 66634,6950.194,96.107,574.303,569.816,0.0
55631.0,STARLINK-5558,PAYLOAD,2024-04-30 05:30:06,14.98330443,0.0003232,69.9982,115.007,268.9684,91.1104,3.8484e-05,3.66e-06,0.0,0 STARLINK-5558,1 55631U 23021D   24121.22924523  .00000366  00000-0  38484-4 0  9993,2 55631  69.9982 115.0070 0003232 268.9684  91.1104 14.98330443 66379,6950.192,96.107,574.303,569.81,0.0
55631.0,STARLINK-5558,PAYLOAD,2024-04-30 08:42:22,14.98332536,0.0003182,69.9983,114.6702,270.5142,89.5653,1.6598e-05,1.05e-06,0.0,0 STARLINK-5558,1 55631U 23021D   24121.36276443  .00000105  00000-0  16598-4 0  9992,2 55631  69.9983 114.6702 0003182 270.5142  89.5653 14.98332536 66699,6950.185,96.107,574.262,569.838,0.0
55631.0,STARLINK-5558,PAYLOAD,2024-04-30 16:43:03,14.98340583,0.0003225,69.9984,113.8287,270.8528,89.2261,-0.00015382,-1.928e-05,0.0,0 STARLINK-5558,1 55631U 23021D   24121.69656252 -.00001928  00000-0 -15382-3 0  9993,2 55631  69.9984 113.8287 0003225 270.8528  89.2261 14.98340583 66747,6950.16,96.106,574.267,569.784,0.0
55631.0,STARLINK-5558,PAYLOAD,2024-05-01 05:32:07,14.98331349,0.000316,69.9983,112.482,268.7249,91.3548,-1.0759e-05,-2.21e-06,0.0,0 STARLINK-5558,1 55631U 23021D   24122.23064501 -.00000221  00000-0 -10759-4 0  9993,2 55631  69.9983 112.4820 0003160 268.7249  91.3548 14.98331349 66526,6950.189,96.107,574.25,569.857,0.0
55631.0,STARLINK-5558,PAYLOAD,2024-05-01 08:44:23,14.98332114,0.0003148,69.9984,112.1454,268.7202,91.3597,-1.4391e-06,-1.1e-06,0.0,0 STARLINK-5558,1 55631U 23021D   24122.36416405 -.00000110  00000-0 -14391-5 0  9995,2 55631  69.9984 112.1454 0003148 268.7202  91.3597 14.98332114 66842,6950.186,96.107,574.239,569.863,0.0
55631.0,STARLINK-5558,PAYLOAD,2024-05-01 16:45:04,14.98322719,0.0003197,69.9982,111.3036,266.2093,93.87,0.00011306,1.256e-05,0.0,0 STARLINK-5558,1 55631U 23021D   24122.69796698  .00001256  00000-0  11306-3 0  9997,2 55631  69.9982 111.3036 0003197 266.2093  93.8700 14.98322719 66890,6950.215,96.107,574.302,569.858,0.0
55631.0,STARLINK-5558,PAYLOAD,2024-05-02 05:34:08,14.98328345,0.0003178,69.9981,109.9568,269.302,90.7775,-3.8528e-05,-5.53e-06,0.0,0 STARLINK-5558,1 55631U 23021D   24123.23204690 -.00000553  00000-0 -38528-4 0  9991,2 55631  69.9981 109.9568 0003178 269.3020  90.7775 14.98328345 66670,6950.198,96.107,574.272,569.854,0.0
55631.0,STARLINK-5558,PAYLOAD,2024-05-02 08:46:24,14.98329456,0.0003171,69.9982,109.6202,269.3693,90.7103,-2.5203e-05,-3.94e-06,0.0,0 STARLINK-5558,1 55631U 23021D   24123.36556584 -.00000394  00000-0 -25203-4 0  9996,2 55631  69.9982 109.6202 0003171 269.3693  90.7103 14.98329456 66996,6950.195,96.107,574.263,569.856,0.0
55631.0,STARLINK-5558,PAYLOAD,2024-05-03 05:36:09,14.98335498,0.0003169,69.9982,107.4319,269.8187,90.2609,5.646e-05,5.81e-06,0.0,0 STARLINK-5558,1 55631U 23021D   24124.23343874  .00000581  00000-0  56460-4 0  9994,2 55631  69.9982 107.4319 0003169 269.8187  90.2609 14.98335498 66822,6950.176,96.107,574.243,569.838,0.0
55631.0,STARLINK-5558,PAYLOAD,2024-05-03 08:48:25,14.98336618,0.0003141,69.9983,107.0952,269.8782,90.2017,7.0574e-05,7.49e-06,0.0,0 STARLINK-5558,1 55631U 23021D   24124.36695718  .00000749  00000-0  70574-4 0  9993,2 55631  69.9983 107.0952 0003141 269.8782  90.2017 14.98336618 67147,6950.172,96.107,574.22,569.854,0.0
55631.0,STARLINK-5558,PAYLOAD,2024-05-04 05:38:10,14.98325251,0.0003047,69.9986,104.9069,270.2364,89.8446,-4.6148e-06,-1.48e-06,0.0,0 STARLINK-5558,1 55631U 23021D   24125.23484693 -.00000148  00000-0 -46148-5 0  9994,2 55631  69.9986 104.9069 0003047 270.2364  89.8446 14.98325251 66973,6950.208,96.107,574.19,569.955,0.0
55631.0,STARLINK-5558,PAYLOAD,2024-05-05 04:04:03,14.98333519,0.0003023,69.9987,102.5504,270.2169,89.8643,-2.2275e-05,-3.59e-06,0.0,0 STARLINK-5558,1 55631U 23021D   24126.16948245 -.00000359  00000-0 -22275-4 0  9993,2 55631  69.9987 102.5504 0003023 270.2169  89.8643 14.98333519 67111,6950.182,96.107,574.148,569.946,0.0
55631.0,STARLINK-5558,PAYLOAD,2024-05-05 08:52:27,14.98335851,0.0002994,69.9988,102.0456,269.8356,90.246,-2.8674e-06,-1.27e-06,0.0,0 STARLINK-5558,1 55631U 23021D   24126.36975981 -.00000127  00000-0 -28674-5 0  9995,2 55631  69.9988 102.0456 0002994 269.8356  90.2460 14.98335851 67441,6950.175,96.107,574.121,569.959,0.0
55631.0,STARLINK-5558,PAYLOAD,2024-05-06 04:06:04,14.98329899,0.0003014,69.9987,100.0258,268.4332,91.6482,5.8082e-05,6e-06,0.0,0 STARLINK-5558,1 55631U 23021D   24127.17088103  .00000600  00000-0  58082-4 0  9995,2 55631  69.9987 100.0258 0003014 268.4332  91.6482 14.98329899 67265,6950.193,96.107,574.153,569.963,0.0
55631.0,STARLINK-5558,PAYLOAD,2024-05-06 08:54:28,14.98332847,0.0002975,69.9988,99.5206,269.954,90.1278,8.747e-05,9.51e-06,0.0,0 STARLINK-5558,1 55631U 23021D   24127.37115815  .00000951  00000-0  87470-4 0  9990,2 55631  69.9988  99.5206 0002975 269.9540  90.1278 14.98332847 67593,6950.184,96.107,574.117,569.981,0.0
55631.0,STARLINK-5558,PAYLOAD,2024-05-06 15:19:01,14.98324573,0.0002796,69.9994,98.8474,269.1409,90.9429,-4.7158e-05,-6.56e-06,0.0,0 STARLINK-5558,1 55631U 23021D   24127.63820753 -.00000656  00000-0 -47158-4 0  9996,2 55631  69.9994  98.8474 0002796 269.1409  90.9429 14.98324573 67331,6950.21,96.107,574.018,570.131,0.0
55631.0,STARLINK-5558,PAYLOAD,2024-05-07 08:56:30,14.98321978,0.0002939,69.999,96.9953,267.8973,92.185,-0.00010002,-1.286e-05,0.0,0 STARLINK-5558,1 55631U 23021D   24128.37257255 -.00001286  00000-0 -10002-3 0  9996,2 55631  69.9990  96.9953 0002939 267.8973  92.1850 14.98321978 67741,6950.218,96.108,574.125,570.04,0.0
55631.0,STARLINK-5558,PAYLOAD,2024-05-07 15:21:02,14.98328203,0.0002929,69.9993,96.3226,267.6263,92.4561,-3.7374e-05,-5.39e-06,0.0,0 STARLINK-5558,1 55631U 23021D   24128.63960732 -.00000539  00000-0 -37374-4 0  9998,2 55631  69.9993  96.3226 0002929 267.6263  92.4561 14.98328203 67481,6950.198,96.107,574.099,570.028,0.0
55631.0,STARLINK-5558,PAYLOAD,2024-05-08 07:22:22,14.98334628,0.0003032,69.9991,94.6386,268.2258,91.8553,2.2142e-05,1.71e-06,0.0,0 STARLINK-5558,1 55631U 23021D   24129.30720109  .00000171  00000-0  22142-4 0  9992,2 55631  69.9991  94.6386 0003032 268.2258  91.8553 14.98334628 67587,6950.179,96.107,574.151,569.936,0.0
